GSAT0101 (GALILEO-PFM)  
1 37846U 11060A   26113.29606242 -.00000087  00000+0  00000+0 0  9994
2 37846  57.0105 343.2506 0003772  24.6527 335.4053  1.70475605 90182
GSAT0102 (GALILEO-FM2)  
1 37847U 11060B   26115.28097148 -.00000090  00000+0  00000+0 0  9999
2 37847  57.0110 343.1972 0004719   9.0108 174.7955  1.70475917 90225
GSAT0103 (GALILEO-FM3)  
1 38857U 12055A   26115.09622636  .00000047  00000+0  00000+0 0  9992
2 38857  55.7743 103.0007 0005916 295.5097  64.4243  1.70473359 84108
GSAT0201 (GALILEO 5)    
1 40128U 14050A   26115.59631178 -.00000057  00000+0  00000+0 0  9991
2 40128  48.9339 275.5890 1666211 177.3353 183.6762  1.85519949 77346
GSAT0202 (GALILEO 6)    
1 40129U 14050B   26112.61814241 -.00000026  00000+0  00000+0 0  9992
2 40129  48.9541 274.7956 1666851 177.9520 182.8300  1.85520499 79453
GSAT0203 (GALILEO 7)    
1 40544U 15017A   26111.90090206 -.00000083  00000+0  00000+0 0  9998
2 40544  56.8042 343.1309 0002546 315.4442  44.5780  1.70475713 68240
GSAT0204 (GALILEO 8)    
1 40545U 15017B   26115.08949468 -.00000090  00000+0  00000+0 0  9993
2 40545  56.8095 343.0621 0001552 296.0698  63.9535  1.70475480 31343
GSAT0205 (GALILEO 9)    
1 40889U 15045A   26115.63255192 -.00000038  00000+0  00000+0 0  9992
2 40889  54.9613 223.1764 0005159 266.9978  92.9342  1.67410754 66085
GSAT0206 (GALILEO 10)   
1 40890U 15045B   26115.66468946 -.00000038  00000+0  00000+0 0  9990
2 40890  54.9612 223.0540 0002188  38.1287 321.8788  1.70473961 66146
GSAT0209 (GALILEO 12)   
1 41174U 15079A   26115.24610591  .00000046  00000+0  00000+0 0  9990
2 41174  55.7962 102.7123 0005679 329.0159  30.9454  1.70474059 63871
GSAT0208 (GALILEO 11)   
1 41175U 15079B   26113.70661183  .00000044  00000+0  00000+0 0  9991
2 41175  55.7940 102.7517 0005073 330.2209  29.7424  1.70473916 64261
GSAT0211 (GALILEO 14)   
1 41549U 16030A   26114.41727357 -.00000030  00000+0  00000+0 0  9995
2 41549  55.1119 223.1731 0002524 359.1559   0.8397  1.70474087 61750
GSAT0210 (GALILEO 13)   
1 41550U 16030B   26115.26112393 -.00000036  00000+0  00000+0 0  9995
2 41550  55.1104 223.1480 0002810 225.6811 134.2889  1.70474037 61767
GSAT0207 (GALILEO 15)   
1 41859U 16069A   26113.19301128  .00000042  00000+0  00000+0 0  9991
2 41859  55.4647 102.6061 0005905 316.7510  43.1935  1.70473937 58467
GSAT0212 (GALILEO 16)   
1 41860U 16069B   26114.21967367  .00000044  00000+0  00000+0 0  9992
2 41860  55.4625 102.5729 0004645 340.5096  19.4658  1.70474155 58730
GSAT0213 (GALILEO 17)   
1 41861U 16069C   26115.17360778  .00000045  00000+0  00000+0 0  9993
2 41861  55.4662 102.5544 0005854 302.3888  57.5492  1.70474518 58614
GSAT0214 (GALILEO 18)   
1 41862U 16069D   26115.90630783  .00000045  00000+0  00000+0 0  9991
2 41862  55.4649 102.5269 0004911 307.4506  52.4995  1.70474260 58751
